RADARSAT-2              
1 32382U 07061A   26201.27397061  .00000122  00000+0  64063-4 0  9995
2 32382  98.5788 207.7345 0001331  85.5051 274.6284 14.29984340970682
